SIRION PATHFINDER-2     
1 43759U 18099B   26133.09552040  .00003308  00000+0  18446-3 0  9994
2 43759  97.4282 182.9909 0010238  67.3448 292.8866 15.14216957407313
CORVUS BC4              
1 43767U 18099K   26133.38571338  .00002650  00000+0  15698-3 0  9991
2 43767  97.4098 177.3876 0009965 117.3909 242.8337 15.12201174407143
M2 PATHFINDER           
1 45727U 20037E   26133.06532169  .00001619  00000+0  12006-3 0  9992
2 45727  97.8165 323.9044 0010100 271.8573  88.1495 15.04519449320218
NETSAT-4                
1 46504U 20068U   26133.43514532  .00011446  00000+0  26439-3 0  9999
2 46504  97.8615 138.9171 0007650  89.1926 271.0196 15.42680023310416
NETSAT-3                
1 46505U 20068V   26133.47908215  .00012076  00000+0  29040-3 0  9990
2 46505  97.8665 137.2267 0007525 101.7462 258.4627 15.41452277310333
NETSAT-1                
1 46506U 20068W   26133.43686272  .00007805  00000+0  24150-3 0  9994
2 46506  97.8750 131.9128 0006783 121.0413 239.1495 15.33770399309978
NETSAT-2                
1 46507U 20068X   26133.26009699  .00013488  00000+0  29295-3 0  9997
2 46507  97.8632 138.5054 0006207 110.5100 249.6814 15.44480336310341
GREENCUBE (IO-117)      
1 53109U 22080E   26133.47737909 -.00000003  00000+0  00000+0 0  9993
2 53109  70.1436 310.3212 0008811 297.6025  62.3740  6.42583324 89839
SITRO-AIS 5 (KATYS)     
1 57176U 23091L   26133.45032674  .00006921  00000+0  25092-3 0  9995
2 57176  97.5083 197.0385 0010763 217.8828 142.1655 15.28630455159037
SITRO-AIS 6 (CHIRKIN)   
1 57192U 23091AC  26133.48205852  .00003597  00000+0  14584-3 0  9996
2 57192  97.5090 196.3694 0010924 221.4183 138.6227 15.25253713158996
SITRO-AIS 8 (ANOKHIN)   
1 57193U 23091AD  26133.46100567  .00007743  00000+0  25947-3 0  9994
2 57193  97.5079 198.5012 0010080 212.9013 147.1602 15.31164713159139
SITRO-AIS 7 (FARTUSHNIY)
1 57194U 23091AE  26133.47830115  .00003345  00000+0  13701-3 0  9994
2 57194  97.5088 196.2081 0010743 222.6048 137.4357 15.24959289158986
SITRO-AIS 10 (BURDAEV)  
1 57199U 23091AK  26133.50406814  .00011434  00000+0  31521-3 0  9996
2 57199  97.5100 203.2525 0007096 184.2625 175.8560 15.37261651159435
SITRO-AIS 9 (SHCHUKIN)  
1 57201U 23091AM  26133.51992575  .00011989  00000+0  33518-3 0  9998
2 57201  97.5098 203.0248 0007302 185.0319 175.0853 15.36810204159423
SITRO-AIS 12 (SMIRENNIY)
1 57204U 23091AQ  26133.51702131  .00011989  00000+0  33217-3 0  9994
2 57204  97.5110 203.4675 0007108 178.9703 181.1557 15.37094903159443
SITRO-AIS 11 (SHEFFER)  
1 57208U 23091AU  26133.47455743  .00012596  00000+0  34447-3 0  9998
2 57208  97.5109 203.6496 0007044 178.8722 181.2540 15.37485419159457
SITRO-AIS 25            
1 59066U 24039R   26133.53395990  .00002577  00000+0  20137-3 0  9998
2 59066  95.3921 211.2834 0147454  89.3631 272.4488 14.93262960119551
SITRO-AIS 26            
1 59067U 24039S   26133.53067059  .00002572  00000+0  20191-3 0  9996
2 59067  95.3922 211.1858 0147784  89.8975 271.9184 14.93066096119548
SITRO-AIS 27            
1 59068U 24039T   26133.51054858  .00002962  00000+0  23002-3 0  9995
2 59068  95.3925 211.4276 0146976  88.6700 273.1357 14.93478036119563
SITRO-AIS 28            
1 59071U 24039U   26133.48879073  .00003229  00000+0  25045-3 0  9995
2 59071  95.3924 211.4580 0146800  88.6242 273.1795 14.93511597119567
GRBBETA                 
1 60237U 24128C   26132.97496547  .00002703  00000+0  19346-3 0  9997
2 60237  61.9907 339.7812 0045302 127.3925 233.1305 15.06341838100960
OOV-CUBE (TUBSAT-30)    
1 60240U 24128F   26133.12030143  .00001450  00000+0  12162-3 0  9992
2 60240  61.9950 347.8334 0048909 126.1268 234.4365 15.02589480100844
ROBUSTA-3A (MEDITERRAN*)
1 60243U 24128J   26133.26880652  .00004630  00000+0  28150-3 0  9995
2 60243  61.9870 331.6757 0045981 121.2758 239.2853 15.11109131101145
LASARSAT                
1 62391U 24247Q   26133.32516525  .00019182  00000+0  41582-3 0  9997
2 62391  44.9736  97.7722 0004764 121.9276 238.2076 15.44166921 77921
CROCUBE                 
1 62394U 24247T   26133.16817152  .00021595  00000+0  44259-3 0  9997
2 62394  44.9712  96.5072 0004393 123.9905 236.1402 15.45750204 77926
FORESAIL-1 PRIME        
1 66778U 25276DS  26133.20378510  .00002863  00000+0  14263-3 0  9994
2 66778  97.4209 207.1221 0001807 186.6223 173.4987 15.18368853 25099
KNACKSAT-2              
1 67683U 98067XZ  26133.14399934  .00027142  00000+0  37475-3 0  9991
2 67683  51.6273 110.3103 0012516  69.1546 291.0785 15.56883677 14813
