OBJECT_NAME,OBJECT_ID,EPOCH,MEAN_MOTION,ECCENTRICITY,INCLINATION,RA_OF_ASC_NODE,ARG_OF_PERICENTER,MEAN_ANOMALY,EPHEMERIS_TYPE,CLASSIFICATION_TYPE,NORAD_CAT_ID,ELEMENT_SET_NO,REV_AT_EPOCH,BSTAR,MEAN_MOTION_DOT,MEAN_MOTION_DDOT
SIRION PATHFINDER-2,2018-099B,2026-05-13T02:17:32.962560,15.14216957,.0010238,97.4282,182.9909,67.3448,292.8866,0,U,43759,999,40731,.18446396E-3,.3308E-4,0
CORVUS BC4,2018-099K,2026-05-13T09:15:25.636032,15.12201174,.0009965,97.4098,177.3876,117.3909,242.8337,0,U,43767,999,40714,.15698E-3,.265E-4,0
M2 PATHFINDER,2020-037E,2026-05-13T01:34:03.794016,15.04519449,.00101,97.8165,323.9044,271.8573,88.1495,0,U,45727,999,32021,.12006E-3,.1619E-4,0
NETSAT-4,2020-068U,2026-05-13T10:26:36.555648,15.42680023,.000765,97.8615,138.9171,89.1926,271.0196,0,U,46504,999,31041,.26439E-3,.11446E-3,0
NETSAT-3,2020-068V,2026-05-13T11:29:52.697760,15.41452277,.0007525,97.8665,137.2267,101.7462,258.4627,0,U,46505,999,31033,.2904E-3,.12076E-3,0
NETSAT-1,2020-068W,2026-05-13T10:29:04.939008,15.33770399,.0006783,97.8750,131.9128,121.0413,239.1495,0,U,46506,999,30997,.2415E-3,.7805E-4,0
NETSAT-2,2020-068X,2026-05-13T06:14:32.379936,15.44480336,.0006207,97.8632,138.5054,110.5100,249.6814,0,U,46507,999,31034,.29295E-3,.13488E-3,0
GREENCUBE (IO-117),2022-080E,2026-05-13T11:27:25.553376,6.42583324,.0008811,70.1436,310.3212,297.6025,62.3740,0,U,53109,999,8983,0,-.3E-7,0
SITRO-AIS 5 (KATYS),2023-091L,2026-05-13T10:48:28.230336,15.28630455,.0010763,97.5083,197.0385,217.8828,142.1655,0,U,57176,999,15903,.25092E-3,.6921E-4,0
SITRO-AIS 6 (CHIRKIN),2023-091AC,2026-05-13T11:34:09.856128,15.25253713,.0010924,97.5090,196.3694,221.4183,138.6227,0,U,57192,999,15899,.14584E-3,.3597E-4,0
SITRO-AIS 8 (ANOKHIN),2023-091AD,2026-05-13T11:03:50.889888,15.31164713,.001008,97.5079,198.5012,212.9013,147.1602,0,U,57193,999,15913,.25947E-3,.7743E-4,0
SITRO-AIS 7 (FARTUSHNIY),2023-091AE,2026-05-13T11:28:45.219360,15.24959289,.0010743,97.5088,196.2081,222.6048,137.4357,0,U,57194,999,15898,.13701E-3,.3345E-4,0
SITRO-AIS 10 (BURDAEV),2023-091AK,2026-05-13T12:05:51.487296,15.37261651,.0007096,97.5100,203.2525,184.2625,175.8560,0,U,57199,999,15943,.31521E-3,.11434E-3,0
SITRO-AIS 9 (SHCHUKIN),2023-091AM,2026-05-13T12:28:41.584800,15.36810204,.0007302,97.5098,203.0248,185.0319,175.0853,0,U,57201,999,15942,.33518E-3,.11989E-3,0
SITRO-AIS 12 (SMIRENNIY),2023-091AQ,2026-05-13T12:24:30.641184,15.37094903,.0007108,97.5110,203.4675,178.9703,181.1557,0,U,57204,999,15944,.33217E-3,.11989E-3,0
SITRO-AIS 11 (SHEFFER),2023-091AU,2026-05-13T11:23:21.761952,15.37485419,.0007044,97.5109,203.6496,178.8722,181.2540,0,U,57208,999,15945,.34447E-3,.12596E-3,0
SITRO-AIS 25,2024-039R,2026-05-13T12:48:54.135360,14.93262960,.0147454,95.3921,211.2834,89.3631,272.4488,0,U,59066,999,11955,.20137E-3,.2577E-4,0
SITRO-AIS 26,2024-039S,2026-05-13T12:44:09.938976,14.93066096,.0147784,95.3922,211.1858,89.8975,271.9184,0,U,59067,999,11954,.20191E-3,.2572E-4,0
SITRO-AIS 27,2024-039T,2026-05-13T12:15:11.397312,14.93478036,.0146976,95.3925,211.4276,88.6700,273.1357,0,U,59068,999,11956,.23002E-3,.2962E-4,0
SITRO-AIS 28,2024-039U,2026-05-13T11:43:51.519072,14.93511597,.01468,95.3924,211.4580,88.6242,273.1795,0,U,59071,999,11956,.25045E-3,.3229E-4,0
GRBBETA,2024-128C,2026-05-12T23:23:57.016608,15.06341838,.00453026,61.9907,339.7812,127.3925,233.1305,0,U,60237,999,10096,.19345903E-3,.2703E-4,0
OOV-CUBE (TUBSAT-30),2024-128F,2026-05-13T02:53:14.043552,15.02589480,.00489092,61.9950,347.8334,126.1268,234.4365,0,U,60240,999,10084,.12162231E-3,.145E-4,0
ROBUSTA-3A (MEDITERRANEE),2024-128J,2026-05-13T06:27:04.883328,15.11109131,.0045981,61.9870,331.6757,121.2758,239.2853,0,U,60243,999,10114,.2815E-3,.463E-4,0
LASARSAT,2024-247Q,2026-05-13T07:48:14.277600,15.44166921,.0004764,44.9736,97.7722,121.9276,238.2076,0,U,62391,999,7792,.41582E-3,.19182E-3,0
CROCUBE,2024-247T,2026-05-13T04:02:10.019328,15.45750204,.0004393,44.9712,96.5072,123.9905,236.1402,0,U,62394,999,7792,.44259E-3,.21595E-3,0
FORESAIL-1 PRIME,2025-276DS,2026-05-13T04:53:27.032640,15.18368853,.0001807,97.4209,207.1221,186.6223,173.4987,0,U,66778,999,2509,.14263E-3,.2863E-4,0
KNACKSAT-2,1998-067XZ,2026-05-13T03:27:21.542976,15.56883677,.0012516,51.6273,110.3103,69.1546,291.0785,0,U,67683,999,1481,.37475E-3,.27142E-3,0
